{"type":"FeatureCollection","features":[{"type":"Feature","geometry":{"type":"Point","coordinates":[-85.161707,10.410854]},"properties":{"sistema":"CH-A-30-BEBEDERO DE CAÑAS","region_aya":"Chorotega","tipo":"Arsénico","etapas":null,"n":118,"anho_min":2017,"anho_max":2021,"tasa_incumplimiento":0.0339,"nombre":"Planta Potabilizadora Bebedero","incumplimiento_por_parametro":{"ARSENICO":0.0339}}},{"type":"Feature","geometry":{"type":"Point","coordinates":[-83.322642,9.192619]},"properties":{"sistema":"BR-A-19.2-BUENOS AIRES: SECTOR PLANTA DE TRATAMIENTO","region_aya":"Brunca","tipo":"Turbiedad y Color","etapas":"Presedimentación-Coagulación-Floculación-Sedimentación-Filtración-Desinfección","n":184,"anho_min":2017,"anho_max":2021,"tasa_incumplimiento":0.0109,"nombre":"Planta Potabilizadora Buenos Aires","incumplimiento_por_parametro":{"ALUMINIO":0.0541,"COLOR APARENTE":0,"SULFATOS":0,"TURBIEDAD":0}}},{"type":"Feature","geometry":{"type":"Point","coordinates":[-83.524225,8.986475]},"properties":{"sistema":"BR-A-08-CIUDAD CORTÉS","region_aya":"Brunca","tipo":"Turbiedad y Color","etapas":"Presedimentación-Coagulación-Floculación-Sedimentación-Filtración-Desinfección","n":175,"anho_min":2017,"anho_max":2021,"tasa_incumplimiento":0.1029,"nombre":"Planta Potabilizadora Cortés","incumplimiento_por_parametro":{"ALUMINIO":0.2424,"COLOR APARENTE":0.0833,"SULFATOS":0,"TURBIEDAD":0.0833}}},{"type":"Feature","geometry":{"type":"Point","coordinates":[-84.562391,10.869269]},"properties":{"sistema":"CO-A-14-CRISTO REY DE LOS CHILES","region_aya":"Central Oeste","tipo":"Hierro y Manganeso","etapas":"Sedimentación-Filtración-Desinfección","n":241,"anho_min":2017,"anho_max":2021,"tasa_incumplimiento":0.0166,"nombre":"Planta Potabilizadora Cristo Rey","incumplimiento_por_parametro":{"ARSENICO":0.0345,"COLOR APARENTE":0,"HIERRO":0,"MANGANESO":0,"TURBIEDAD":0.0392}}},{"type":"Feature","geometry":{"type":"Point","coordinates":[-85.366667,10.732687]},"properties":{"sistema":"CH-A-56-CURUBANDÉ DE LIBERIA (SISTEMA NUEVO)","region_aya":"Chorotega","tipo":"Turbiedad y Color","etapas":"Presedimentación-Filtración-Desinfección","n":32,"anho_min":2019,"anho_max":2021,"tasa_incumplimiento":0,"nombre":"Planta Potabilizadora Curubande","incumplimiento_por_parametro":{"ALUMINIO":0,"COLOR APARENTE":0,"SULFATOS":0,"TURBIEDAD":0}}},{"type":"Feature","geometry":{"type":"Point","coordinates":[-85.251665,10.461887]},"properties":{"sistema":"CH-A-46-FALCONIANA DE BAGACES","region_aya":"Chorotega","tipo":"Arsénico","etapas":"Sedimentación-Filtración-Desinfección","n":114,"anho_min":2017,"anho_max":2021,"tasa_incumplimiento":0.1228,"nombre":"Planta Potabilizadora Falconiana","incumplimiento_por_parametro":{"ARSENICO":0.1228}}},{"type":"Feature","geometry":{"type":"Point","coordinates":[-82.822639,9.619867]},"properties":{"sistema":"HA-A-01-ACUEDUCTO  INTEGRADO HONE CREEK - PUERTO VIEJO","region_aya":"Huetar Caribe","tipo":"Hierro y Manganeso","etapas":"Oxidación-Filtración-Desinfección","n":160,"anho_min":2017,"anho_max":2021,"tasa_incumplimiento":0.1312,"nombre":"Planta Potabilizadora Hone Creek","incumplimiento_por_parametro":{"COLOR APARENTE":0.0392,"HIERRO":0.2414,"MANGANESO":0.4138,"TURBIEDAD":0}}},{"type":"Feature","geometry":{"type":"Point","coordinates":[-84.593976,9.657705]},"properties":{"sistema":"PC-A-23-JACÓ DE GARABITO","region_aya":"Pacífico Central","tipo":"Turbiedad y Color","etapas":"Presedimentación-Coagulación-Floculación-Sedimentación-Filtración-Desinfección","n":168,"anho_min":2017,"anho_max":2021,"tasa_incumplimiento":0,"nombre":"Planta Potabilizadora Jacó","incumplimiento_por_parametro":{"ALUMINIO":0,"COLOR APARENTE":0,"SULFATOS":0,"TURBIEDAD":0}}},{"type":"Feature","geometry":{"type":"Point","coordinates":[-83.068232,9.91876]},"properties":{"sistema":"HA-A-03-LIMÓN","region_aya":"Huetar Caribe","tipo":"Turbiedad y Color","etapas":"Presedimentación-Coagulación-Floculación-Sedimentación-Filtración-Desinfección","n":194,"anho_min":2017,"anho_max":2021,"tasa_incumplimiento":0.1186,"nombre":"Planta Potabilizadora La Bomba Limón","incumplimiento_por_parametro":{"ALUMINIO":0.5366,"COLOR APARENTE":0.0185,"SULFATOS":0,"TURBIEDAD":0}}},{"type":"Feature","geometry":{"type":"Point","coordinates":[-82.97294,9.734096]},"properties":{"sistema":"HA-A-05-LA GUARIA DEL VALLE DE LA ESTRELLA","region_aya":"Huetar Caribe","tipo":"Hierro y Manganeso","etapas":"Oxidación-Filtración-Desinfección","n":158,"anho_min":2017,"anho_max":2021,"tasa_incumplimiento":0.0506,"nombre":"Planta Potabilizadora La Guaria","incumplimiento_por_parametro":{"COLOR APARENTE":0.0435,"HIERRO":0.1515,"MANGANESO":0,"TURBIEDAD":0.0217}}},{"type":"Feature","geometry":{"type":"Point","coordinates":[-85.417829,10.645219]},"properties":{"sistema":"CH-A-50-LIBERIA","region_aya":"Chorotega","tipo":"Turbiedad y Color","etapas":"Presedimentación-Coagulación-Floculación-Sedimentación-Filtración-Desinfección","n":241,"anho_min":2017,"anho_max":2021,"tasa_incumplimiento":0.0705,"nombre":"Planta Potabilizadora Liberia","incumplimiento_por_parametro":{"ALUMINIO":0.2826,"COLOR APARENTE":0.0366,"SULFATOS":0,"TURBIEDAD":0.012}}},{"type":"Feature","geometry":{"type":"Point","coordinates":[-85.210439,10.466711]},"properties":{"sistema":"CH-A-45-MONTENEGRO Y AGUA CALIENTE DE BAGACES","region_aya":"Chorotega","tipo":"Arsénico","etapas":"Sedimentación-Filtración-Desinfección","n":114,"anho_min":2017,"anho_max":2021,"tasa_incumplimiento":0.0702,"nombre":"Planta Potabilizadora Montenegro -Agua Caliente","incumplimiento_por_parametro":{"ARSENICO":0.0702}}},{"type":"Feature","geometry":{"type":"Point","coordinates":[-85.429151,10.122294]},"properties":{"sistema":"CH-A-12-NICOYA","region_aya":"Chorotega","tipo":"Turbiedad y Color","etapas":"Presedimentación-Coagulación-Floculación-Sedimentación-Filtración-Desinfección","n":201,"anho_min":2017,"anho_max":2021,"tasa_incumplimiento":0.005,"nombre":"Planta Potabilizadora Nicoya","incumplimiento_por_parametro":{"ALUMINIO":0.0256,"COLOR APARENTE":0,"SULFATOS":0,"TURBIEDAD":0}}},{"type":"Feature","geometry":{"type":"Point","coordinates":[-84.572738,10.17225]},"properties":{"sistema":"CO-A-38-PIEDADES NORTE","region_aya":"Central Oeste","tipo":"Turbiedad y Color","etapas":"Presedimentación-Filtración-Desinfección","n":64,"anho_min":2019,"anho_max":2021,"tasa_incumplimiento":0.1094,"nombre":"Planta Potabilizadora Piedades Norte-La Paz","incumplimiento_por_parametro":{"ALUMINIO":0,"COLOR APARENTE":0.3684,"SULFATOS":0,"TURBIEDAD":0}}},{"type":"Feature","geometry":{"type":"Point","coordinates":[-84.707954,9.994925]},"properties":{"sistema":"PC-A-17-BARRANCA - EL ROBLE- CHACARITA","region_aya":"Pacífico Central","tipo":"Turbiedad y Color","etapas":"Presedimentación-Coagulación-Floculación-Sedimentación-Filtración-Desinfección","n":181,"anho_min":2017,"anho_max":2021,"tasa_incumplimiento":0.0497,"nombre":"Planta Potabilizadora Puntarenas","incumplimiento_por_parametro":{"ALUMINIO":0.2105,"COLOR APARENTE":0.0185,"SULFATOS":0,"TURBIEDAD":0}}},{"type":"Feature","geometry":{"type":"Point","coordinates":[-85.262353,10.545885]},"properties":{"sistema":"CH-A-47-QUINTAS DON MIGUEL DE BAGACES","region_aya":"Chorotega","tipo":"Arsénico","etapas":"Sedimentación-Filtración-Desinfección","n":116,"anho_min":2017,"anho_max":2021,"tasa_incumplimiento":0.1466,"nombre":"Planta Potabilizadora Quintas Don Miguel","incumplimiento_por_parametro":{"ARSENICO":0.1466}}},{"type":"Feature","geometry":{"type":"Point","coordinates":[-84.132271,9.810535]},"properties":{"sistema":"CO-A-33-SAN IGNACIO DE ACOSTA","region_aya":"Central Oeste","tipo":"Turbiedad y Color","etapas":"Presedimentación-Coagulación-Floculación-Sedimentación-Filtración-Desinfección","n":301,"anho_min":2017,"anho_max":2021,"tasa_incumplimiento":0.0266,"nombre":"Planta Potabilizadora San Ignacio de Acosta","incumplimiento_por_parametro":{"ALUMINIO":0.1304,"COLOR APARENTE":0.0116,"SULFATOS":0,"TURBIEDAD":0.0093}}},{"type":"Feature","geometry":{"type":"Point","coordinates":[-83.70771,9.389365]},"properties":{"sistema":"BR-A-01.1-SAN ISIDRO","region_aya":"Brunca","tipo":"Turbiedad y Color","etapas":"Presedimentación-Coagulación-Floculación-Sedimentación-Filtración-Desinfección","n":246,"anho_min":2017,"anho_max":2021,"tasa_incumplimiento":0.0285,"nombre":"Planta Potabilizadora San Isidro , Planta Alta","incumplimiento_por_parametro":{"ALUMINIO":0.0962,"COLOR APARENTE":0.0152,"SULFATOS":0,"TURBIEDAD":0.0112}}},{"type":"Feature","geometry":{"type":"Point","coordinates":[-84.495661,9.958685]},"properties":{"sistema":"PC-A-10-SAN MATEO","region_aya":"Pacífico Central","tipo":"Turbiedad y Color","etapas":"Presedimentación-Coagulación-Floculación-Sedimentación-Filtración-Desinfección","n":214,"anho_min":2017,"anho_max":2021,"tasa_incumplimiento":0.0607,"nombre":"Planta Potabilizadora San Mateo","incumplimiento_por_parametro":{"ALUMINIO":0.1702,"COLOR APARENTE":0.0333,"SULFATOS":0.0667,"TURBIEDAD":0}}},{"type":"Feature","geometry":{"type":"Point","coordinates":[-84.481511,10.094782]},"properties":{"sistema":"CO-A-35-SAN RAMÓN","region_aya":"Central Oeste","tipo":"Turbiedad y Color","etapas":"Presedimentación-Coagulación-Floculación-Sedimentación-Filtración-Desinfección","n":34,"anho_min":2020,"anho_max":2021,"tasa_incumplimiento":0.0294,"nombre":"Planta Potabilizadora San Ramón-Palmares","incumplimiento_por_parametro":{"ALUMINIO":0,"COLOR APARENTE":0,"SULFATOS":0,"TURBIEDAD":0.0769}}},{"type":"Feature","geometry":{"type":"Point","coordinates":[-84.628848,10.859421]},"properties":{"sistema":"CO-A-15-SANTA CECILIA DE AMPARO DE LOS CHILES","region_aya":"Central Oeste","tipo":"Hierro y Manganeso","etapas":"Sedimentación-Filtración-Desinfección","n":211,"anho_min":2017,"anho_max":2021,"tasa_incumplimiento":0.0047,"nombre":"Planta Potabilizadora Santa Cecilia","incumplimiento_por_parametro":{"ARSENICO":0,"COLOR APARENTE":0,"HIERRO":0.0217,"MANGANESO":0,"TURBIEDAD":0}}},{"type":"Feature","geometry":{"type":"Point","coordinates":[-83.516383,10.094508]},"properties":{"sistema":"HA-A-09-SIQUIRRES","region_aya":"Huetar Caribe","tipo":"Turbiedad y Color","etapas":"Presedimentación-Coagulación-Floculación-Sedimentación-Filtración-Desinfección","n":196,"anho_min":2017,"anho_max":2021,"tasa_incumplimiento":0.1071,"nombre":"Planta Potabilizadora Siquirres","incumplimiento_por_parametro":{"ALUMINIO":0.4884,"COLOR APARENTE":0,"SULFATOS":0,"TURBIEDAD":0}}},{"type":"Feature","geometry":{"type":"Point","coordinates":[-84.77789,10.1127]},"properties":{"sistema":"PC-A-21-ZAGALA-VILLA BRUSELAS-CEBADILLA","region_aya":"Pacífico Central","tipo":"Aluminio","etapas":"Oxidación-Sedimentación-Filtración-Desinfección","n":16,"anho_min":2017,"anho_max":2021,"tasa_incumplimiento":0.8125,"nombre":"Planta Potabilizadora Zagala","incumplimiento_por_parametro":{"ALUMINIO":0.8125}}},{"type":"Feature","geometry":{"type":"Point","coordinates":[-84.107727,9.886151]},"properties":{"sistema":"ME-A-09.1-ALAJUELITA","region_aya":"Metropolitana","tipo":"Turbiedad y Color","etapas":"Coagulación-Floculación-Sedimentación-Filtración-Desinfección","n":324,"anho_min":2017,"anho_max":2021,"tasa_incumplimiento":0.0617,"nombre":"Planta Potabilizadora de Alajuelita","incumplimiento_por_parametro":{"ALUMINIO":0.32,"COLOR APARENTE":0.043,"SULFATOS":0,"TURBIEDAD":0}}},{"type":"Feature","geometry":{"type":"Point","coordinates":[-84.118724,9.876808]},"properties":{"sistema":"ME-A-03.1-EL LLANO: SECTOR PLANTA DE TRATAMIENTO","region_aya":"Metropolitana","tipo":"Turbiedad y Color","etapas":"Presedimentación-Filtración-Desinfección","n":110,"anho_min":2017,"anho_max":2020,"tasa_incumplimiento":0,"nombre":"Planta Potabilizadora de El Llano","incumplimiento_por_parametro":{"ALUMINIO":0,"COLOR APARENTE":0,"SULFATOS":0,"TURBIEDAD":0}}},{"type":"Feature","geometry":{"type":"Point","coordinates":[-84.127997,9.894969]},"properties":{"sistema":"ME-A-07.1-SAN ANTONIO DE ESCAZÚ","region_aya":"Metropolitana","tipo":"Turbiedad y Color","etapas":"Coagulación-Floculación-Sedimentación-Filtración-Desinfección","n":178,"anho_min":2017,"anho_max":2020,"tasa_incumplimiento":0.0225,"nombre":"Planta Potabilizadora de Escazú","incumplimiento_por_parametro":{"ALUMINIO":0.1111,"COLOR APARENTE":0,"SULFATOS":0,"TURBIEDAD":0}}},{"type":"Feature","geometry":{"type":"Point","coordinates":[-84.030971,9.963847]},"properties":{"sistema":"ME-A-02-GUADALUPE","region_aya":"Metropolitana","tipo":"Turbiedad y Color","etapas":"Coagulación-Presedimentación-Sedimentación-Filtración-Desinfección","n":383,"anho_min":2017,"anho_max":2021,"tasa_incumplimiento":0.1619,"nombre":"Planta Potabilizadora de Guadalupe","incumplimiento_por_parametro":{"ALUMINIO":0.6522,"COLOR APARENTE":0.0208,"SULFATOS":0,"TURBIEDAD":0}}},{"type":"Feature","geometry":{"type":"Point","coordinates":[-84.029916,9.860676]},"properties":{"sistema":"ME-A-11-GUATUSO DE PATARRÁ","region_aya":"Metropolitana","tipo":"Turbiedad y Color","etapas":"Coagulación-Floculación-Sedimentación-Filtración-Desinfección","n":201,"anho_min":2017,"anho_max":2021,"tasa_incumplimiento":0.0199,"nombre":"Planta Potabilizadora de Guatuso","incumplimiento_por_parametro":{"ALUMINIO":0.0976,"COLOR APARENTE":0,"SULFATOS":0,"TURBIEDAD":0}}},{"type":"Feature","geometry":{"type":"Point","coordinates":[-83.94493,9.810637]},"properties":{"sistema":"ME-A-27.4-PLANTA POTABILIZADORA HACIENDA VIEJA DE TEJAR","region_aya":"Metropolitana","tipo":"Turbiedad y Color","etapas":"Coagulación-Floculación-Sedimentación-Filtración-Desinfección","n":110,"anho_min":2017,"anho_max":2021,"tasa_incumplimiento":0.0273,"nombre":"Planta Potabilizadora de Hacienda Vieja","incumplimiento_por_parametro":{"ALUMINIO":0.1034,"COLOR APARENTE":0,"SULFATOS":0,"TURBIEDAD":0}}},{"type":"Feature","geometry":{"type":"Point","coordinates":[-83.964125,9.817316]},"properties":{"sistema":"ME-A-27.5-PLANTA POTABILIZADORA HIGUITO DEL TEJAR","region_aya":"Metropolitana","tipo":"Turbiedad y Color","etapas":"Coagulación-Floculación-Sedimentación-Filtración-Desinfección","n":111,"anho_min":2017,"anho_max":2021,"tasa_incumplimiento":0.018,"nombre":"Planta Potabilizadora de Higuito","incumplimiento_por_parametro":{"ALUMINIO":0.0625,"COLOR APARENTE":0.0286,"SULFATOS":0,"TURBIEDAD":0}}},{"type":"Feature","geometry":{"type":"Point","coordinates":[-83.943499,9.856076]},"properties":{"sistema":"ME-A-27.6-PLANTA POTABILIZADORA LAS CATALINAS DE TEJAR","region_aya":"Metropolitana","tipo":"Hierro y Manganeso","etapas":"Oxidación-Sedimentación-Filtración-Desinfección","n":165,"anho_min":2017,"anho_max":2021,"tasa_incumplimiento":0,"nombre":"Planta Potabilizadora de Las Catalinas","incumplimiento_por_parametro":{"ALUMINIO":0,"ARSENICO":0,"COLOR APARENTE":0,"HIERRO":0,"MANGANESO":0,"SULFATOS":0,"TURBIEDAD":0}}},{"type":"Feature","geometry":{"type":"Point","coordinates":[-84.007082,9.960941]},"properties":{"sistema":"ME-A-08-LOS CUADROS","region_aya":"Metropolitana","tipo":"Turbiedad y Color","etapas":"Coagulación-Floculación-Sedimentación-Filtración-Desinfección","n":171,"anho_min":2017,"anho_max":2021,"tasa_incumplimiento":0.0526,"nombre":"Planta Potabilizadora de Los Cuadros","incumplimiento_por_parametro":{"ALUMINIO":0.2647,"COLOR APARENTE":0,"SULFATOS":0,"TURBIEDAD":0}}},{"type":"Feature","geometry":{"type":"Point","coordinates":[-84.040934,9.98144]},"properties":{"sistema":"ME-A-04-LOS SITIOS","region_aya":"Metropolitana","tipo":"Turbiedad y Color","etapas":"Coagulación-Floculación-Sedimentación-Filtración-Desinfección","n":404,"anho_min":2017,"anho_max":2021,"tasa_incumplimiento":0.0149,"nombre":"Planta Potabilizadora de Los Sitios","incumplimiento_por_parametro":{"ALUMINIO":0.093,"COLOR APARENTE":0.0134,"SULFATOS":0,"TURBIEDAD":0}}},{"type":"Feature","geometry":{"type":"Point","coordinates":[-83.981352,9.955388]},"properties":{"sistema":"ME-A-10-MATA DE PLÁTANO","region_aya":"Metropolitana","tipo":"Turbiedad y Color","etapas":"Coagulación-Floculación-Sedimentación-Filtración-Desinfección","n":277,"anho_min":2017,"anho_max":2021,"tasa_incumplimiento":0.0939,"nombre":"Planta Potabilizadora de Mata Plátano","incumplimiento_por_parametro":{"ALUMINIO":0.383,"COLOR APARENTE":0.1,"SULFATOS":0,"TURBIEDAD":0}}},{"type":"Feature","geometry":{"type":"Point","coordinates":[-84.249008,9.867359]},"properties":{"sistema":"ME-A-12-QUITIRRISÍ","region_aya":"Metropolitana","tipo":"Turbiedad y Color","etapas":"Coagulación-Floculación-Sedimentación-Filtración-Desinfección","n":18,"anho_min":2019,"anho_max":2021,"tasa_incumplimiento":0,"nombre":"Planta Potabilizadora de Quitirrisi","incumplimiento_por_parametro":{"ALUMINIO":0,"COLOR APARENTE":0,"SULFATOS":0,"TURBIEDAD":0}}},{"type":"Feature","geometry":{"type":"Point","coordinates":[-84.175945,9.902964]},"properties":{"sistema":"ME-A-05.1-SANTA ANA: SECTOR ABASTECIDO POR LA PLANTA DE SALI","region_aya":"Metropolitana","tipo":"Turbiedad y Color","etapas":"Coagulación-Floculación-Sedimentación-Filtración-Desinfección","n":180,"anho_min":2017,"anho_max":2021,"tasa_incumplimiento":0.0389,"nombre":"Planta Potabilizadora de Salitral","incumplimiento_por_parametro":{"ALUMINIO":0.2,"COLOR APARENTE":0,"SULFATOS":0,"TURBIEDAD":0}}},{"type":"Feature","geometry":{"type":"Point","coordinates":[-83.997404,10.014438]},"properties":{"sistema":"ME-A-13-SAN JERÓNIMO","region_aya":"Metropolitana","tipo":"Turbiedad y Color","etapas":"Coagulación-Floculación-Sedimentación-Filtración-Desinfección","n":150,"anho_min":2017,"anho_max":2021,"tasa_incumplimiento":0.0067,"nombre":"Planta Potabilizadora de San Jerónimo","incumplimiento_por_parametro":{"ALUMINIO":0.027,"COLOR APARENTE":0,"SULFATOS":0,"TURBIEDAD":0}}},{"type":"Feature","geometry":{"type":"Point","coordinates":[-84.092183,9.872144]},"properties":{"sistema":"ME-A-06.1-SAN JUAN DE DIOS","region_aya":"Metropolitana","tipo":"Turbiedad y Color","etapas":"Presedimentación-Coagulación-Floculación-Sedimentación-Filtración-Desinfección","n":213,"anho_min":2017,"anho_max":2021,"tasa_incumplimiento":0.0094,"nombre":"Planta Potabilizadora de San Juan de Díos","incumplimiento_por_parametro":{"ALUMINIO":0.0476,"COLOR APARENTE":0,"SULFATOS":0,"TURBIEDAD":0}}},{"type":"Feature","geometry":{"type":"Point","coordinates":[-83.972282,9.982492]},"properties":{"sistema":"ME-A-14-SAN RAFAEL Y SAN PEDRO DE CORONADO: PL. TRATAMIENTO","region_aya":"Metropolitana","tipo":"Turbiedad y Color","etapas":"Presedimentación-Coagulación-Floculación-Sedimentación-Filtración-Desinfección","n":198,"anho_min":2017,"anho_max":2021,"tasa_incumplimiento":0.0202,"nombre":"Planta Potabilizadora de San Rafael de Coronado","incumplimiento_por_parametro":{"ALUMINIO":0.1026,"COLOR APARENTE":0,"SULFATOS":0,"TURBIEDAD":0}}},{"type":"Feature","geometry":{"type":"Point","coordinates":[-83.981522,9.919142]},"properties":{"sistema":"ME-A-01-TRES RÍOS","region_aya":"Metropolitana","tipo":"Turbiedad y Color","etapas":"Coagulación-Floculación-Sedimentación-Filtración-Desinfección","n":1284,"anho_min":2017,"anho_max":2021,"tasa_incumplimiento":0.0257,"nombre":"Planta Potabilizadora de Tres Ríos","incumplimiento_por_parametro":{"ALUMINIO":0.2857,"COLOR APARENTE":0.002,"SULFATOS":0,"TURBIEDAD":0.0034}}}]}