{"type":"FeatureCollection","features":[{"type":"Feature","properties":{"id":"alajuela","name":"Alajuela"},"geometry":{"type":"Polygon","coordinates":[[[-84.1556,10.786],[-84.206,10.7852],[-84.2367,10.8201],[-84.2147,10.8407],[-84.2193,10.8636],[-84.2918,10.9111],[-84.3229,10.918],[-84.3417,10.9749],[-84.3587,10.9958],[-84.3996,10.9754],[-84.4198,10.9554],[-84.45,10.9621],[-84.4859,11.0009],[-84.5645,11.0331],[-84.5748,11.0511],[-84.6061,11.0384],[-84.6805,11.0844],[-84.9102,10.9434],[-85.2303,11.0637],[-85.2591,11.078],[-85.2706,11.0154],[-85.3149,11.0463],[-85.3593,11.0382],[-85.3928,10.9833],[-85.432,10.9612],[-85.4092,10.9156],[-85.402,10.8717],[-85.3768,10.8354],[-85.3517,10.8366],[-85.3211,10.8112],[-85.2892,10.7672],[-85.2389,10.7706],[-85.2015,10.7523],[-85.1432,10.7464],[-85.1257,10.7209],[-85.0879,10.7253],[-85.0197,10.7028],[-84.9996,10.6346],[-84.9528,10.5882],[-84.8534,10.5481],[-84.8459,10.5322],[-84.7968,10.4998],[-84.7742,10.4971],[-84.7676,10.414],[-84.784,10.3831],[-84.7708,10.3631],[-84.7965,10.3158],[-84.779,10.2905],[-84.7455,10.2674],[-84.695,10.2879],[-84.662,10.2585],[-84.6563,10.2389],[-84.6807,10.1899],[-84.669,10.1821],[-84.6693,10.1254],[-84.6258,10.0449],[-84.5721,10.0422],[-84.5566,10.0267],[-84.5592,9.9906],[-84.5819,9.9822],[-84.6103,9.9508],[-84.6423,9.9491],[-84.681,9.901],[-84.6758,9.8701],[-84.6022,9.8616],[-84.5731,9.8292],[-84.4941,9.9073],[-84.4524,9.9228],[-84.4216,9.9204],[-84.3679,9.9299],[-84.3212,9.9156],[-84.2939,9.9305],[-84.2523,9.9277],[-84.2307,9.9487],[-84.1835,9.972],[-84.1611,10.0831],[-84.1644,10.1956],[-84.1623,10.4137],[-84.1628,10.585],[-84.1556,10.786]]]}},{"type":"Feature","properties":{"id":"cartago","name":"Cartago"},"geometry":{"type":"Polygon","coordinates":[[[-83.5073,9.5005],[-83.5124,9.5577],[-83.5261,9.5864],[-83.4312,9.6709],[-83.424,9.7166],[-83.3315,9.8373],[-83.3498,9.9466],[-83.3107,9.9861],[-83.6111,9.9869],[-83.7816,10.0636],[-83.9472,10.1467],[-83.9222,10.0787],[-83.8904,10.0615],[-83.8673,10.0322],[-83.8617,9.9734],[-83.9145,9.9571],[-83.9473,9.9565],[-84.004,9.9295],[-84.0155,9.8993],[-83.9993,9.8767],[-84.0306,9.8246],[-84.076,9.8008],[-84.0815,9.7653],[-84.037,9.7644],[-83.9926,9.784],[-83.9798,9.7451],[-83.9519,9.7366],[-83.9468,9.705],[-83.8969,9.6857],[-83.8818,9.6666],[-83.8588,9.6723],[-83.8473,9.6238],[-83.7641,9.6049],[-83.7479,9.5617],[-83.6844,9.5511],[-83.6583,9.5806],[-83.6386,9.5817],[-83.619,9.5583],[-83.5504,9.5286],[-83.5073,9.5005]]]}},{"type":"Feature","properties":{"id":"guanacaste","name":"Guanacaste"},"geometry":{"type":"Polygon","coordinates":[[[-85.2591,11.078],[-85.3572,11.1262],[-85.4237,11.1288],[-85.5233,11.1681],[-85.5604,11.21],[-85.6099,11.2196],[-85.6929,11.0793],[-85.6675,11.0453],[-85.6883,11.0271],[-85.7411,11.0436],[-85.7524,11.0181],[-85.6892,10.977],[-85.7047,10.9349],[-85.785,10.9378],[-85.7955,10.9081],[-85.8176,10.9211],[-85.8168,10.945],[-85.8546,10.9448],[-85.8648,10.9263],[-85.9144,10.9057],[-85.9035,10.8899],[-85.8668,10.8769],[-85.8449,10.8569],[-85.8041,10.8492],[-85.7925,10.8153],[-85.7634,10.8029],[-85.7443,10.8187],[-85.6825,10.8043],[-85.6583,10.766],[-85.6619,10.7199],[-85.6496,10.643],[-85.626,10.6253],[-85.691,10.5654],[-85.7531,10.53],[-85.7694,10.541],[-85.798,10.5071],[-85.7732,10.4469],[-85.8076,10.4005],[-85.8329,10.3963],[-85.8653,10.3665],[-85.8382,10.3085],[-85.8531,10.2622],[-85.8387,10.2356],[-85.8364,10.201],[-85.8182,10.1785],[-85.7888,10.094],[-85.6826,9.9729],[-85.6582,9.9042],[-85.5894,9.8835],[-85.4848,9.8687],[-85.4676,9.8492],[-85.4431,9.8623],[-85.3963,9.8526],[-85.3322,9.8289],[-85.2689,9.785],[-85.2677,9.7588],[-85.2276,9.7379],[-85.1955,9.7836],[-85.1993,9.8099],[-85.1788,9.8555],[-85.2006,9.8585],[-85.2237,9.8996],[-85.28,9.9218],[-85.2698,9.9624],[-85.1894,9.9716],[-85.1647,10.014],[-85.1936,10.0451],[-85.1944,10.0832],[-85.2392,10.1063],[-85.2472,10.1764],[-85.2409,10.2281],[-85.2166,10.1833],[-85.1429,10.1601],[-85.1091,10.1763],[-85.0767,10.1627],[-85.051,10.1668],[-84.94,10.1208],[-84.9312,10.1631],[-84.889,10.1879],[-84.8945,10.2238],[-84.8702,10.3058],[-84.836,10.3361],[-84.7965,10.3158],[-84.7708,10.3631],[-84.784,10.3831],[-84.7676,10.414],[-84.7742,10.4971],[-84.7968,10.4998],[-84.8459,10.5322],[-84.8534,10.5481],[-84.9528,10.5882],[-84.9996,10.6346],[-85.0197,10.7028],[-85.0879,10.7253],[-85.1257,10.7209],[-85.1432,10.7464],[-85.2015,10.7523],[-85.2389,10.7706],[-85.2892,10.7672],[-85.3211,10.8112],[-85.3517,10.8366],[-85.3768,10.8354],[-85.402,10.8717],[-85.4092,10.9156],[-85.432,10.9612],[-85.3928,10.9833],[-85.3593,11.0382],[-85.3149,11.0463],[-85.2706,11.0154],[-85.2591,11.078]]]}},{"type":"Feature","properties":{"id":"heredia","name":"Heredia"},"geometry":{"type":"Polygon","coordinates":[[[-84.1556,10.786],[-84.1628,10.585],[-84.1623,10.4137],[-84.1644,10.1956],[-84.1611,10.0831],[-84.1835,9.972],[-84.1452,9.962],[-84.0577,9.9687],[-84.0353,9.9905],[-84.0103,10.0346],[-84.0281,10.0596],[-84.0146,10.0803],[-83.9822,10.0988],[-83.9739,10.1655],[-83.9329,10.1873],[-83.8642,10.24],[-83.8469,10.2782],[-83.8575,10.3663],[-83.8804,10.4013],[-83.8738,10.4292],[-83.8315,10.4602],[-83.8302,10.5036],[-83.8467,10.5524],[-83.8339,10.5906],[-83.8458,10.6032],[-83.8387,10.6473],[-83.7872,10.6581],[-83.7639,10.7001],[-83.7401,10.7223],[-83.74,10.7548],[-83.7648,10.7689],[-83.8397,10.7439],[-83.8627,10.7176],[-83.8886,10.7217],[-83.9319,10.7077],[-84.0023,10.7623],[-84.0172,10.7877],[-84.0509,10.7795],[-84.0703,10.7598],[-84.102,10.7744],[-84.1556,10.786]]]}},{"type":"Feature","properties":{"id":"limon","name":"Limón"},"geometry":{"type":"Polygon","coordinates":[[[-83.9329,10.1873],[-83.9472,10.1467],[-83.7816,10.0636],[-83.6111,9.9869],[-83.3107,9.9861],[-83.3498,9.9466],[-83.3315,9.8373],[-83.424,9.7166],[-83.4312,9.6709],[-83.5261,9.5864],[-83.5124,9.5577],[-83.5073,9.5005],[-83.4886,9.4843],[-83.4803,9.454],[-83.4487,9.3861],[-83.4251,9.3692],[-83.3954,9.3409],[-83.3497,9.3547],[-83.325,9.3908],[-83.2788,9.3566],[-83.254,9.3518],[-83.2325,9.3281],[-83.1792,9.3304],[-83.1424,9.287],[-83.0671,9.2539],[-83.0544,9.1756],[-82.9885,9.157],[-82.9782,9.0997],[-82.9542,9.0697],[-82.9359,9.0785],[-82.9361,9.4731],[-82.8426,9.5014],[-82.8723,9.5246],[-82.8849,9.5651],[-82.876,9.593],[-82.8244,9.6118],[-82.8066,9.5957],[-82.7396,9.5779],[-82.6763,9.5081],[-82.6391,9.4936],[-82.6026,9.5108],[-82.6,9.5595],[-82.5546,9.5549],[-82.6048,9.597],[-82.6184,9.6304],[-82.6677,9.6318],[-82.726,9.6443],[-82.7823,9.6663],[-82.8143,9.7176],[-82.8651,9.7549],[-83.0159,9.9509],[-83.0356,10.0082],[-83.0641,10.015],[-83.1039,10.0069],[-83.135,10.0416],[-83.1859,10.1127],[-83.2734,10.2191],[-83.3069,10.2548],[-83.4053,10.377],[-83.4651,10.4722],[-83.5236,10.5885],[-83.5578,10.6783],[-83.5761,10.7401],[-83.5863,10.8057],[-83.621,10.8773],[-83.6437,10.9119],[-83.6888,10.9345],[-83.6669,10.8801],[-83.675,10.8528],[-83.6606,10.8187],[-83.6689,10.7988],[-83.7648,10.7689],[-83.74,10.7548],[-83.7401,10.7223],[-83.7639,10.7001],[-83.7872,10.6581],[-83.8387,10.6473],[-83.8458,10.6032],[-83.8339,10.5906],[-83.8467,10.5524],[-83.8302,10.5036],[-83.8315,10.4602],[-83.8738,10.4292],[-83.8804,10.4013],[-83.8575,10.3663],[-83.8469,10.2782],[-83.8642,10.24],[-83.9329,10.1873]]]}},{"type":"Feature","properties":{"id":"puntarenas","name":"Puntarenas"},"geometry":{"type":"MultiPolygon","coordinates":[[[[-87.0946,5.5184],[-87.0676,5.5086],[-87.0304,5.5269],[-87.0326,5.5473],[-87.0827,5.5396],[-87.0946,5.5184]]],[[[-85.0767,10.1627],[-85.0161,10.1246],[-85.0032,10.1032],[-84.9725,10.0923],[-84.9274,10.0382],[-84.8339,9.9866],[-84.7429,9.9694],[-84.7355,9.9412],[-84.7136,9.9223],[-84.7309,9.8935],[-84.7056,9.8747],[-84.6545,9.8104],[-84.6278,9.7621],[-84.6325,9.7397],[-84.6587,9.7173],[-84.6752,9.687],[-84.6626,9.6522],[-84.6279,9.6102],[-84.6219,9.5859],[-84.5412,9.529],[-84.5355,9.5186],[-84.4731,9.5286],[-84.3359,9.4903],[-84.2987,9.486],[-84.226,9.4669],[-84.1663,9.4304],[-84.1666,9.4102],[-84.1441,9.3816],[-84.0928,9.372],[-83.9533,9.315],[-83.9031,9.2822],[-83.8451,9.2365],[-83.8257,9.213],[-83.7789,9.1929],[-83.7489,9.1538],[-83.7209,9.1322],[-83.6403,9.0517],[-83.6197,8.9182],[-83.6039,8.9209],[-83.5927,8.8656],[-83.579,8.8476],[-83.6385,8.8118],[-83.647,8.7963],[-83.6401,8.7368],[-83.6553,8.6968],[-83.6905,8.6957],[-83.7164,8.6758],[-83.7324,8.6414],[-83.7345,8.5988],[-83.6981,8.5786],[-83.6482,8.5212],[-83.6042,8.488],[-83.5896,8.4595],[-83.5455,8.4399],[-83.493,8.4484],[-83.4357,8.4352],[-83.3405,8.397],[-83.2991,8.3754],[-83.2811,8.3987],[-83.2709,8.4653],[-83.29,8.4946],[-83.2849,8.5327],[-83.3214,8.562],[-83.3737,8.5752],[-83.4265,8.6181],[-83.4347,8.6589],[-83.4852,8.7066],[-83.4806,8.7196],[-83.3998,8.7368],[-83.3472,8.7361],[-83.333,8.721],[-83.3288,8.6804],[-83.2918,8.657],[-83.2548,8.6572],[-83.1821,8.6218],[-83.1648,8.6366],[-83.1269,8.5925],[-83.1537,8.5781],[-83.1054,8.5381],[-83.1202,8.5079],[-83.0919,8.4503],[-83.1106,8.4136],[-83.1315,8.4019],[-83.1454,8.3663],[-83.1102,8.3318],[-83.0394,8.2924],[-82.9711,8.2394],[-82.9072,8.1421],[-82.9104,8.1952],[-82.9323,8.2205],[-82.9418,8.2728],[-83.0444,8.3152],[-83.0517,8.3334],[-83.0038,8.3593],[-82.9355,8.4239],[-82.8684,8.4397],[-82.8396,8.4803],[-82.8318,8.5058],[-82.8397,8.5461],[-82.8222,8.5671],[-82.8339,8.5942],[-82.83,8.636],[-82.8841,8.7018],[-82.8918,8.7266],[-82.9163,8.7411],[-82.9182,8.767],[-82.8854,8.7737],[-82.8664,8.8053],[-82.8843,8.8293],[-82.8552,8.8562],[-82.8357,8.8557],[-82.7822,8.875],[-82.7488,8.9057],[-82.7119,8.9219],[-82.7169,8.9494],[-82.7556,8.9954],[-82.8014,9.0036],[-82.8247,9.0342],[-82.8739,9.0574],[-82.8871,9.0879],[-82.9359,9.0785],[-82.9542,9.0697],[-82.9782,9.0997],[-82.9885,9.157],[-83.0544,9.1756],[-83.0671,9.2539],[-83.1424,9.287],[-83.1792,9.3304],[-83.2325,9.3281],[-83.254,9.3518],[-83.2788,9.3566],[-83.325,9.3908],[-83.3497,9.3547],[-83.3954,9.3409],[-83.4251,9.3692],[-83.446,9.3491],[-83.4758,9.2909],[-83.5223,9.2169],[-83.4728,9.1818],[-83.4694,9.1599],[-83.4904,9.1355],[-83.4982,9.0986],[-83.5456,9.08],[-83.6061,9.1093],[-83.6227,9.1319],[-83.6657,9.1488],[-83.7073,9.2263],[-83.7408,9.2497],[-83.7633,9.2227],[-83.7893,9.2271],[-83.8501,9.2666],[-83.8533,9.3169],[-83.8655,9.3454],[-83.891,9.3686],[-83.9055,9.41],[-83.9216,9.4135],[-83.9545,9.3916],[-83.983,9.4325],[-84.0454,9.4762],[-84.0754,9.5047],[-84.0757,9.5588],[-84.1189,9.5566],[-84.1434,9.5806],[-84.1309,9.6091],[-84.1502,9.6282],[-84.2034,9.6193],[-84.2552,9.6293],[-84.3068,9.6538],[-84.324,9.6413],[-84.3961,9.6412],[-84.3952,9.6088],[-84.4323,9.5616],[-84.4473,9.584],[-84.5138,9.5774],[-84.5531,9.6021],[-84.5586,9.6386],[-84.5822,9.6638],[-84.59,9.7536],[-84.559,9.7568],[-84.5731,9.8292],[-84.6022,9.8616],[-84.6758,9.8701],[-84.681,9.901],[-84.6423,9.9491],[-84.6103,9.9508],[-84.5819,9.9822],[-84.5592,9.9906],[-84.5566,10.0267],[-84.5721,10.0422],[-84.6258,10.0449],[-84.6693,10.1254],[-84.669,10.1821],[-84.6807,10.1899],[-84.6563,10.2389],[-84.662,10.2585],[-84.695,10.2879],[-84.7455,10.2674],[-84.779,10.2905],[-84.7965,10.3158],[-84.836,10.3361],[-84.8702,10.3058],[-84.8945,10.2238],[-84.889,10.1879],[-84.9312,10.1631],[-84.94,10.1208],[-85.051,10.1668],[-85.0767,10.1627]]],[[[-85.2276,9.7379],[-85.1977,9.6723],[-85.1445,9.6156],[-85.1336,9.5725],[-85.0926,9.5705],[-85.0679,9.6541],[-84.995,9.7047],[-85.0178,9.7218],[-84.9866,9.7489],[-84.9551,9.7279],[-84.9513,9.7596],[-84.929,9.7643],[-84.8992,9.8178],[-84.9327,9.8362],[-84.9204,9.8613],[-84.9375,9.8808],[-84.9217,9.9254],[-84.9711,9.9424],[-85.0101,9.9394],[-85.0503,9.9752],[-85.066,9.9672],[-85.1137,9.98],[-85.1647,10.014],[-85.1894,9.9716],[-85.2698,9.9624],[-85.28,9.9218],[-85.2237,9.8996],[-85.2006,9.8585],[-85.1788,9.8555],[-85.1993,9.8099],[-85.1955,9.7836],[-85.2276,9.7379]]],[[[-85.0941,10.0961],[-85.162,10.1264],[-85.192,10.1084],[-85.1831,10.085],[-85.1416,10.0729],[-85.0941,10.0961]]]]}},{"type":"Feature","properties":{"id":"san_jose","name":"San José"},"geometry":{"type":"Polygon","coordinates":[[[-84.1835,9.972],[-84.2307,9.9487],[-84.2523,9.9277],[-84.2939,9.9305],[-84.3212,9.9156],[-84.3679,9.9299],[-84.4216,9.9204],[-84.4524,9.9228],[-84.4941,9.9073],[-84.5731,9.8292],[-84.559,9.7568],[-84.59,9.7536],[-84.5822,9.6638],[-84.5586,9.6386],[-84.5531,9.6021],[-84.5138,9.5774],[-84.4473,9.584],[-84.4323,9.5616],[-84.3952,9.6088],[-84.3961,9.6412],[-84.324,9.6413],[-84.3068,9.6538],[-84.2552,9.6293],[-84.2034,9.6193],[-84.1502,9.6282],[-84.1309,9.6091],[-84.1434,9.5806],[-84.1189,9.5566],[-84.0757,9.5588],[-84.0754,9.5047],[-84.0454,9.4762],[-83.983,9.4325],[-83.9545,9.3916],[-83.9216,9.4135],[-83.9055,9.41],[-83.891,9.3686],[-83.8655,9.3454],[-83.8533,9.3169],[-83.8501,9.2666],[-83.7893,9.2271],[-83.7633,9.2227],[-83.7408,9.2497],[-83.7073,9.2263],[-83.6657,9.1488],[-83.6227,9.1319],[-83.6061,9.1093],[-83.5456,9.08],[-83.4982,9.0986],[-83.4904,9.1355],[-83.4694,9.1599],[-83.4728,9.1818],[-83.5223,9.2169],[-83.4758,9.2909],[-83.446,9.3491],[-83.4251,9.3692],[-83.4487,9.3861],[-83.4803,9.454],[-83.4886,9.4843],[-83.5073,9.5005],[-83.5504,9.5286],[-83.619,9.5583],[-83.6386,9.5817],[-83.6583,9.5806],[-83.6844,9.5511],[-83.7479,9.5617],[-83.7641,9.6049],[-83.8473,9.6238],[-83.8588,9.6723],[-83.8818,9.6666],[-83.8969,9.6857],[-83.9468,9.705],[-83.9519,9.7366],[-83.9798,9.7451],[-83.9926,9.784],[-84.037,9.7644],[-84.0815,9.7653],[-84.076,9.8008],[-84.0306,9.8246],[-83.9993,9.8767],[-84.0155,9.8993],[-84.004,9.9295],[-83.9473,9.9565],[-83.9145,9.9571],[-83.8617,9.9734],[-83.8673,10.0322],[-83.8904,10.0615],[-83.9222,10.0787],[-83.9472,10.1467],[-83.9329,10.1873],[-83.9739,10.1655],[-83.9822,10.0988],[-84.0146,10.0803],[-84.0281,10.0596],[-84.0103,10.0346],[-84.0353,9.9905],[-84.0577,9.9687],[-84.1452,9.962],[-84.1835,9.972]]]}}]}