{"type":"FeatureCollection","properties":{"source":"MIDEPLAN, Área de Planificación Regional, 2024. Decreto 16068-PLAN: Regionalización Oficial de Costa Rica","transcribedFrom":"MIDEPLAN map (screenshot)","caveats":["Dissolved at canton granularity from cantones.geojson (geoBoundaries ADM2). Alajuela and San Ramón are kept whole in Central even though the official regionalization carves out their Sarapiquí and Peñas Blancas districts into Huetar Norte — no distrito-level boundaries in this project yet, see DATA_SOURCES.md.","Monteverde canton (Pacífico Central) isn't a separate polygon in cantones.geojson (post-dates that dataset's vintage) — its territory is still folded into the Puntarenas canton polygon, which is already assigned to Pacífico Central, so coverage is complete even though the canton isn't individually distinguishable."]},"features":[{"type":"Feature","properties":{"id":"brunca","name":"Brunca","color":"#A0706A","cantones_count":7},"geometry":{"type":"Polygon","coordinates":[[[-83.4297,9.3669],[-83.4895,9.4838],[-83.6344,9.5801],[-83.7641,9.584],[-83.8247,9.5316],[-83.9895,9.4652],[-84.0006,9.4501],[-83.9087,9.4038],[-83.8533,9.2798],[-83.8683,9.2558],[-83.7295,9.1457],[-83.6328,9.0129],[-83.6078,8.8309],[-83.6511,8.8001],[-83.6542,8.7001],[-83.7097,8.6869],[-83.7327,8.5915],[-83.6525,8.5252],[-83.5685,8.4399],[-83.4326,8.4324],[-83.2911,8.3735],[-83.2839,8.537],[-83.373,8.5762],[-83.4738,8.6889],[-83.3752,8.7428],[-83.3317,8.7201],[-83.3307,8.6846],[-83.1805,8.6213],[-83.0926,8.4502],[-83.1479,8.3656],[-83.048,8.3418],[-82.8392,8.48],[-82.8258,8.6232],[-82.9035,8.733],[-82.8811,8.8321],[-82.7133,8.9226],[-82.7534,8.9926],[-82.9362,9.0784],[-82.9744,9.0944],[-83.0501,9.1637],[-83.0789,9.2521],[-83.1788,9.3265],[-83.3138,9.3828],[-83.4297,9.3669]],[[-83.5482,9.0793],[-83.5491,9.0824],[-83.5482,9.0806],[-83.5482,9.0793]]]}},{"type":"Feature","properties":{"id":"central","name":"Central","color":"#D5C4BC","cantones_count":45},"geometry":{"type":"Polygon","coordinates":[[[-84.2239,9.6283],[-84.1494,9.6294],[-84.1352,9.5721],[-84.0006,9.4501],[-83.9895,9.4652],[-83.8247,9.5316],[-83.7641,9.584],[-83.6344,9.5801],[-83.4895,9.4838],[-83.4884,9.484],[-83.5105,9.5988],[-83.3371,9.832],[-83.3486,9.9364],[-83.4503,9.9822],[-83.6031,9.9817],[-83.7171,10.0399],[-83.7749,10.0633],[-83.8178,10.0838],[-83.9472,10.147],[-83.9298,10.1897],[-83.9143,10.2016],[-84.1042,10.2],[-84.1609,10.2976],[-84.1611,10.4131],[-84.1995,10.2796],[-84.2411,10.2418],[-84.2649,10.2743],[-84.3547,10.246],[-84.4433,10.2686],[-84.5126,10.2507],[-84.5175,10.2494],[-84.518,10.2453],[-84.5191,10.261],[-84.5471,10.4391],[-84.7661,10.4252],[-84.7933,10.3207],[-84.6963,10.271],[-84.657,10.245],[-84.6652,10.1219],[-84.5534,9.9921],[-84.4527,9.9974],[-84.468,9.9418],[-84.4617,9.9246],[-84.5633,9.8416],[-84.5902,9.7327],[-84.5297,9.5752],[-84.4819,9.5765],[-84.4249,9.5582],[-84.3032,9.6494],[-84.2239,9.6283]],[[-84.1737,10.0057],[-84.1734,10.0045],[-84.1738,10.005],[-84.1737,10.0057]],[[-84.3068,10.0072],[-84.2992,10.0143],[-84.299,10.0144],[-84.3068,10.0072]],[[-84.0441,9.9029],[-84.0474,9.904],[-84.0484,9.9042],[-84.046,9.9038],[-84.0441,9.9029]],[[-84.0241,9.9676],[-84.0318,9.9688],[-84.0247,9.9681],[-84.0236,9.9672],[-84.0241,9.9676]]]}},{"type":"Feature","properties":{"id":"chorotega","name":"Chorotega","color":"#C3D69B","cantones_count":11},"geometry":{"type":"Polygon","coordinates":[[[-84.8268,10.3374],[-84.7933,10.3207],[-84.7661,10.4252],[-84.7742,10.4977],[-84.8614,10.5564],[-84.9245,10.5736],[-85.0009,10.6525],[-85.0137,10.671],[-85.0599,10.7082],[-85.2925,10.7758],[-85.3688,10.8291],[-85.4487,10.9346],[-85.3559,11.0303],[-85.2731,11.0137],[-85.2322,11.062],[-85.3577,11.1259],[-85.4234,11.1287],[-85.6097,11.219],[-85.6928,11.079],[-85.7328,10.9405],[-85.9292,10.9042],[-85.7903,10.8148],[-85.68,10.807],[-85.6283,10.6245],[-85.7982,10.4844],[-85.8017,10.4045],[-85.8538,10.2552],[-85.773,10.0689],[-85.697,9.986],[-85.6272,9.8918],[-85.4956,9.871],[-85.4547,9.8619],[-85.2975,9.803],[-85.232,9.7338],[-85.1808,9.8533],[-85.2711,9.9186],[-85.1625,10.0183],[-85.1904,10.0663],[-85.2288,10.0957],[-85.2473,10.2476],[-85.2258,10.1923],[-85.0775,10.1439],[-85.0394,10.1916],[-84.939,10.1148],[-84.8268,10.3374]]]}},{"type":"Feature","properties":{"id":"huetar-caribe","name":"Huetar Caribe","color":"#BCCCEF","cantones_count":6},"geometry":{"type":"Polygon","coordinates":[[[-83.7171,10.0399],[-83.6031,9.9817],[-83.4503,9.9822],[-83.3486,9.9364],[-83.3371,9.832],[-83.5105,9.5988],[-83.4884,9.484],[-83.4895,9.4838],[-83.4297,9.3669],[-83.3138,9.3828],[-83.1788,9.3265],[-83.0789,9.2521],[-83.0501,9.1637],[-82.9744,9.0944],[-82.9362,9.0784],[-82.9359,9.4775],[-82.8505,9.6208],[-82.6124,9.5001],[-82.6174,9.6307],[-82.7696,9.6594],[-82.8695,9.7599],[-83.0281,9.9696],[-83.1593,10.0631],[-83.2782,10.2236],[-83.3569,10.3145],[-83.4662,10.4741],[-83.5224,10.5897],[-83.6251,10.8891],[-83.6697,10.7981],[-83.7562,10.7739],[-83.7891,10.6568],[-83.8386,10.644],[-83.8319,10.4615],[-83.8761,10.3909],[-83.8517,10.2693],[-83.9143,10.2016],[-83.9298,10.1897],[-83.9472,10.147],[-83.8178,10.0838],[-83.7749,10.0633],[-83.7171,10.0399]],[[-83.4734,10.2888],[-83.4669,10.2891],[-83.4703,10.2884],[-83.4734,10.2888]]]}},{"type":"Feature","properties":{"id":"huetar-norte","name":"Huetar Norte","color":"#687497","cantones_count":6},"geometry":{"type":"Polygon","coordinates":[[[-85.0009,10.6525],[-84.9245,10.5736],[-84.8614,10.5564],[-84.7742,10.4977],[-84.7661,10.4252],[-84.5471,10.4391],[-84.5191,10.261],[-84.5175,10.2494],[-84.5126,10.2507],[-84.4433,10.2686],[-84.3547,10.246],[-84.2649,10.2743],[-84.2411,10.2418],[-84.1995,10.2796],[-84.1611,10.4131],[-84.1609,10.5721],[-84.1609,10.2976],[-84.1042,10.2],[-83.9143,10.2016],[-83.8517,10.2693],[-83.8761,10.3909],[-83.8319,10.4615],[-83.8386,10.644],[-83.7891,10.6568],[-83.7562,10.7739],[-83.9307,10.7062],[-84.0288,10.7927],[-84.1611,10.7342],[-84.2224,10.8014],[-84.2278,10.8731],[-84.3234,10.9199],[-84.3605,10.9903],[-84.4547,10.9624],[-84.4863,11.0016],[-84.6797,11.0837],[-84.8798,10.9612],[-84.9103,10.9438],[-85.2322,11.062],[-85.2731,11.0137],[-85.3559,11.0303],[-85.4487,10.9346],[-85.3688,10.8291],[-85.2925,10.7758],[-85.0599,10.7082],[-85.0137,10.671],[-85.0009,10.6525]]]}},{"type":"Feature","properties":{"id":"pacifico-central","name":"Pacífico Central","color":"#667A3E","cantones_count":8},"geometry":{"type":"MultiPolygon","coordinates":[[[[-84.6992,9.8642],[-84.6266,9.7554],[-84.6751,9.6962],[-84.6594,9.6274],[-84.5517,9.5384],[-84.1892,9.4502],[-84.1451,9.3799],[-83.9431,9.3092],[-83.8683,9.2558],[-83.8533,9.2798],[-83.9087,9.4038],[-84.0006,9.4501],[-84.1352,9.5721],[-84.1494,9.6294],[-84.2239,9.6283],[-84.3032,9.6494],[-84.4249,9.5582],[-84.4819,9.5765],[-84.5297,9.5752],[-84.5902,9.7327],[-84.5633,9.8416],[-84.4617,9.9246],[-84.468,9.9418],[-84.4527,9.9974],[-84.5534,9.9921],[-84.6652,10.1219],[-84.657,10.245],[-84.6963,10.271],[-84.7933,10.3207],[-84.8268,10.3374],[-84.939,10.1148],[-85.0394,10.1916],[-85.0775,10.1439],[-84.8316,9.9809],[-84.7385,9.9587],[-84.6992,9.8642]]],[[[-85.232,9.7338],[-85.1546,9.6248],[-85.059,9.656],[-84.9282,9.7619],[-84.9213,9.926],[-85.1025,9.9706],[-85.1625,10.0183],[-85.2711,9.9186],[-85.1808,9.8533],[-85.232,9.7338]]]]}}]}